[{"OBJECT_NAME":"STARLINK-34714","OBJECT_ID":"2025-158H","EPOCH":"2026-03-09T15:26:25.636128","MEAN_MOTION":15.05667828,"ECCENTRICITY":0.0001395,"INCLINATION":97.6029,"RA_OF_ASC_NODE":294.1154,"ARG_OF_PERICENTER":61.921,"MEAN_ANOMALY":298.2158,"EPHEMERIS_TYPE":0,"CLASSIFICATION_TYPE":"U","NORAD_CAT_ID":64939,"ELEMENT_SET_NO":999,"REV_AT_EPOCH":3519,"BSTAR":0.00048537,"MEAN_MOTION_DOT":6.953e-5,"MEAN_MOTION_DDOT":0},{"OBJECT_NAME":"SL-6 R\/B(2)","OBJECT_ID":"1990-055D","EPOCH":"2026-03-09T21:41:59.551872","MEAN_MOTION":15.03595553,"ECCENTRICITY":0.00247741,"INCLINATION":62.7825,"RA_OF_ASC_NODE":253.121,"ARG_OF_PERICENTER":347.1508,"MEAN_ANOMALY":12.8957,"EPHEMERIS_TYPE":0,"CLASSIFICATION_TYPE":"U","NORAD_CAT_ID":20666,"ELEMENT_SET_NO":999,"REV_AT_EPOCH":93822,"BSTAR":0.00020900577,"MEAN_MOTION_DOT":2.688e-5,"MEAN_MOTION_DDOT":0}]
